{
    "links": {
        "self": "http://www.neowsapp.com/rest/v1/neo/3717043?api_key=iIulBulltgU6a56xZRHN4H3l9WmuAYTsLGpBGhQ2"
    },
    "id": "3717043",
    "neo_reference_id": "3717043",
    "name": "(2015 HN10)",
    "designation": "2015 HN10",
    "nasa_jpl_url": "http://ssd.jpl.nasa.gov/sbdb.cgi?sstr=3717043",
    "absolute_magnitude_h": 25.9,
    "estimated_diameter": {
        "kilometers": {
            "estimated_diameter_min": 0.0175612318,
            "estimated_diameter_max": 0.0392681082
        },
        "meters": {
            "estimated_diameter_min": 17.561231848,
            "estimated_diameter_max": 39.2681081809
        },
        "miles": {
            "estimated_diameter_min": 0.0109120402,
            "estimated_diameter_max": 0.0244000636
        },
        "feet": {
            "estimated_diameter_min": 57.6155918963,
            "estimated_diameter_max": 128.8323800441
        }
    },
    "is_potentially_hazardous_asteroid": false,
    "close_approach_data": [
        {
            "close_approach_date": "2015-03-26",
            "close_approach_date_full": "2015-Mar-26 15:37",
            "epoch_date_close_approach": 1427384220000,
            "relative_velocity": {
                "kilometers_per_second": "2.1437888947",
                "kilometers_per_hour": "7717.640020813",
                "miles_per_hour": "4795.4413784879"
            },
            "miss_distance": {
                "astronomical": "0.1472030176",
                "lunar": "57.2619738464",
                "kilometers": "22021257.890532512",
                "miles": "13683375.1466401856"
            },
            "orbiting_body": "Earth"
        }
    ],
    "orbital_data": {
        "orbit_id": "3",
        "orbit_determination_date": "2017-04-06 08:34:10",
        "first_observation_date": "2015-04-19",
        "last_observation_date": "2015-04-22",
        "data_arc_in_days": 3,
        "observations_used": 14,
        "orbit_uncertainty": "9",
        "minimum_orbit_intersection": ".141562",
        "jupiter_tisserand_invariant": "4.649",
        "epoch_osculation": "2457133.5",
        "eccentricity": ".2230096639983963",
        "semi_major_axis": "1.43364818255041",
        "inclination": "4.891347488188623",
        "ascending_node_longitude": "230.8084227563673",
        "orbital_period": "626.9924476036356",
        "perihelion_distance": "1.113930783067932",
        "perihelion_argument": "295.9062912960416",
        "aphelion_distance": "1.753365582032889",
        "perihelion_time": "2457085.989508231570",
        "mean_anomaly": "27.27907983900829",
        "mean_motion": ".5741695954646975",
        "equinox": "J2000",
        "orbit_class": {
            "orbit_class_type": "AMO",
            "orbit_class_description": "Near-Earth asteroid orbits similar to that of 1221 Amor",
            "orbit_class_range": "1.017 AU < q (perihelion) < 1.3 AU"
        }
    },
    "is_sentry_object": false
}